TIANZHOU-4              
1 52509U 22050A   22224.50807463 -.00098143  00000+0 -11236-2 0  9996
2 52509  41.4605 235.9140 0004388  15.9220 118.9517 15.61476649 73572
PROGRESS-MS 20          
1 52795U 22059A   22224.55350414  .00007127  00000+0  13202-3 0  9992
2 52795  51.6430  57.3552 0005712 112.8226 357.5764 15.50152791353928
SHENZHOU 14             
1 52797U 22060A   22224.50807463 -.00098143  00000+0 -11236-2 0  9996
2 52797  41.4605 235.9140 0004388  15.9220 118.9517 15.61476649 10651
ISS DEB                 
1 52952U 98067TP  22225.70342074  .00050723  00000+0  77388-3 0  9995
2 52952  51.6418  51.0250 0004286 136.9221 223.2106 15.53932410  6495
DRAGON CRS-25           
1 53113U 22081A   22224.55350414  .00007127  00000+0  13202-3 0  9992
2 53113  51.6430  57.3552 0005712 112.8226 357.5764 15.50152791353923
CSS (WENTIAN)           
1 53239U 22085A   22224.50807463 -.00098143  00000+0 -11236-2 0  9995
2 53239  41.4605 235.9140 0004388  15.9220 118.9517 15.61476649  3015
1998-067TQ              
1 53305U 98067TQ  22225.88026615  .00032821  00000+0  55415-3 0  9993
2 53305  51.6415  50.6989 0003640 117.8191 242.3168 15.51317337  3610
1998-067TR              
1 53306U 98067TR  22225.81354207  .00036791  00000+0  61512-3 0  9993
2 53306  51.6414  51.0042 0003194 122.3400 237.7899 15.51538050  3608
1998-067TS              
1 53307U 98067TS  22225.87766858  .00036723  00000+0  61367-3 0  9992
2 53307  51.6410  50.6816 0003141 111.1202 249.0123 15.51553457  3645
RS3S                    
1 53308U 98067TT  22225.87739414  .00035597  00000+0  59504-3 0  9999
2 53308  51.6412  50.6807 0002924 114.4915 245.6379 15.51559999  3678
RS1S                    
1 53309U 98067TU  22225.87691826  .00036277  00000+0  60518-3 0  9997
2 53309  51.6411  50.6767 0003567 128.6258 231.5051 15.51606055  3626
RS5S                    
1 53310U 98067TV  22225.81251634  .00034866  00000+0  58283-3 0  9990
2 53310  51.6416  50.9975 0003261 129.2191 230.9088 15.51568617  3647
RS6S                    
1 53311U 98067TW  22225.87591580  .00038729  00000+0  64302-3 0  9995
2 53311  51.6409  50.6701 0002649 108.2173 251.9105 15.51710273  3673
RS9S                    
1 53312U 98067TX  22225.87613670  .00036521  00000+0  60806-3 0  9994
2 53312  51.6413  50.6715 0003762 130.8242 229.3074 15.51656946  3613
RS12S                   
1 53313U 98067TY  22225.87550774  .00037464  00000+0  62235-3 0  9995
2 53313  51.6413  50.6679 0003279 135.8082 224.3170 15.51709846  3668
RS4S                    
1 53321U 98067TZ  22225.87780343  .00036300  00000+0  60692-3 0  9994
2 53321  51.6417  50.6844 0003069 120.9273 239.2019 15.51544030  3668
1998-067UA              
1 53322U 98067UA  22225.87763941  .00037179  00000+0  62070-3 0  9997
2 53322  51.6413  50.6823 0003004 117.5755 242.5540 15.51574060  3615
1998-067UB              
1 53462U 98067UB  22225.77423403  .00025613  00000+0  43966-3 0  9990
2 53462  51.6416  51.3018 0008004 138.6274 312.4487 15.50962847   226
1998-067UC              
1 53463U 98067UC  22225.77812464  .00055533  00000+0  93887-3 0  9991
2 53463  51.6407  51.2797 0007349 136.3158 336.6965 15.51017734   223
1998-067UD              
1 53464U 98067UD  22225.79130787  .00029420  00000+0  50190-3 0  9991
2 53464  51.6409  51.2135 0007841 139.6502  47.2655 15.51059441   220
